IDEFIX & ARIANE 42P R/B 
1 27422U 02021B   26020.80987811  .00000559  00000+0  22917-3 0  9996
2 27422  98.5828 320.0030 0011410 333.9045  26.1561 14.30984552237173
AQUA                    
1 27424U 02022A   26020.90316333  .00002787  00000+0  56766-3 0  9999
2 27424  98.4095 347.4297 0002000  71.6339 309.8236 14.61840001261750
CZ-4B R/B               
1 27432U 02024C   26020.77307514  .00000142  00000+0  96038-4 0  9996
2 27432  98.8937  74.3974 0050563 158.1560 321.5261 14.14537406222464
MIDORI II (ADEOS-II)    
1 27597U 02056A   26020.84978998  .00000583  00000+0  24713-3 0  9990
2 27597  98.7693 339.0231 0001869 110.3422 249.7960 14.29241172203467
H-2A R/B                
1 27601U 02056E   26020.90292264  .00000646  00000+0  24127-3 0  9997
2 27601  98.3120 343.1134 0069328 304.6875 117.7306 14.33717950207263
CZ-4B R/B               
1 28059U 03049C   26020.93305704  .00000879  00000+0  21297-3 0  9998
2 28059  98.6824  13.9858 0048614  18.7743 341.5231 14.54957253179652
CZ-2C R/B               
1 28222U 04012C   26020.68160886  .00089923  00000+0  11401-2 0  9995
2 28222  97.7344  81.6065 0017183 125.9329 234.3523 15.58979089196783
SL-16 R/B               
1 28353U 04021B   26020.93805334 -.00000112  00000+0 -33287-4 0  9995
2 28353  71.0028 332.7037 0002738 130.9376 229.1984 14.14592475116088
CZ-4B R/B               
1 28415U 04035C   26020.99167102  .00017840  00000+0  64161-3 0  9997
2 28415  97.3562  55.8223 0033956 135.8262 224.5698 15.28117949172623
CZ-2C R/B               
1 28480U 04046B   26020.73460527  .00000359  00000+0  14932-3 0  9998
2 28480  98.2002 298.6941 0138438 296.9822  61.7279 14.26969393101667
ARIANE 5 R/B            
1 28499U 04049H   26020.93395210  .00002008  00000+0  22686-3 0  9997
2 28499  98.2552 187.6298 0085033 145.2035 215.4781 14.85140492138700
CZ-2D R/B               
1 28738U 05024B   26020.98876481  .00047762  00000+0  68653-3 0  9996
2 28738  97.3617  34.5385 0005145 168.3480 191.7895 15.55934407132353
