CCSDS_OMM_VERS = 2.0
CREATION_DATE  = 
ORIGINATOR     = 

OBJECT_NAME    = IDEFIX & ARIANE 42P R/B
OBJECT_ID      = 2002-021B
CENTER_NAME    = EARTH
REF_FRAME      = TEME
TIME_SYSTEM    = UTC
MEAN_ELEMENT_THEORY = SGP/SGP4

EPOCH          = 2026-01-20T19:26:13.468704
MEAN_MOTION    = 14.30984552
ECCENTRICITY   = .001141
INCLINATION    = 98.5828
RA_OF_ASC_NODE = 320.0030
ARG_OF_PERICENTER = 333.9045
MEAN_ANOMALY   = 26.1561

EPHEMERIS_TYPE = 0
CLASSIFICATION_TYPE = U
NORAD_CAT_ID   = 27422
ELEMENT_SET_NO = 999
REV_AT_EPOCH   = 23717
BSTAR          = .22917229E-3
MEAN_MOTION_DOT = .559E-5
MEAN_MOTION_DDOT = 0

CCSDS_OMM_VERS = 2.0
CREATION_DATE  = 
ORIGINATOR     = 

OBJECT_NAME    = AQUA
OBJECT_ID      = 2002-022A
CENTER_NAME    = EARTH
REF_FRAME      = TEME
TIME_SYSTEM    = UTC
MEAN_ELEMENT_THEORY = SGP/SGP4

EPOCH          = 2026-01-20T21:40:33.311712
MEAN_MOTION    = 14.61840001
ECCENTRICITY   = .00020007
INCLINATION    = 98.4095
RA_OF_ASC_NODE = 347.4297
ARG_OF_PERICENTER = 71.6339
MEAN_ANOMALY   = 309.8236

EPHEMERIS_TYPE = 0
CLASSIFICATION_TYPE = U
NORAD_CAT_ID   = 27424
ELEMENT_SET_NO = 999
REV_AT_EPOCH   = 26175
BSTAR          = .56765524E-3
MEAN_MOTION_DOT = .2787E-4
MEAN_MOTION_DDOT = 0

CCSDS_OMM_VERS = 2.0
CREATION_DATE  = 
ORIGINATOR     = 

OBJECT_NAME    = CZ-4B R/B
OBJECT_ID      = 2002-024C
CENTER_NAME    = EARTH
REF_FRAME      = TEME
TIME_SYSTEM    = UTC
MEAN_ELEMENT_THEORY = SGP/SGP4

EPOCH          = 2026-01-20T18:33:13.692096
MEAN_MOTION    = 14.14537406
ECCENTRICITY   = .00505632
INCLINATION    = 98.8937
RA_OF_ASC_NODE = 74.3974
ARG_OF_PERICENTER = 158.1560
MEAN_ANOMALY   = 321.5261

EPHEMERIS_TYPE = 0
CLASSIFICATION_TYPE = U
NORAD_CAT_ID   = 27432
ELEMENT_SET_NO = 999
REV_AT_EPOCH   = 22246
BSTAR          = .96037623E-4
MEAN_MOTION_DOT = .142E-5
MEAN_MOTION_DDOT = 0

CCSDS_OMM_VERS = 2.0
CREATION_DATE  = 
ORIGINATOR     = 

OBJECT_NAME    = MIDORI II (ADEOS-II)
OBJECT_ID      = 2002-056A
CENTER_NAME    = EARTH
REF_FRAME      = TEME
TIME_SYSTEM    = UTC
MEAN_ELEMENT_THEORY = SGP/SGP4

EPOCH          = 2026-01-20T20:23:41.854272
MEAN_MOTION    = 14.29241172
ECCENTRICITY   = .00018698
INCLINATION    = 98.7693
RA_OF_ASC_NODE = 339.0231
ARG_OF_PERICENTER = 110.3422
MEAN_ANOMALY   = 249.7960

EPHEMERIS_TYPE = 0
CLASSIFICATION_TYPE = U
NORAD_CAT_ID   = 27597
ELEMENT_SET_NO = 999
REV_AT_EPOCH   = 20346
BSTAR          = .2471286E-3
MEAN_MOTION_DOT = .583E-5
MEAN_MOTION_DDOT = 0

CCSDS_OMM_VERS = 2.0
CREATION_DATE  = 
ORIGINATOR     = 

OBJECT_NAME    = H-2A R/B
OBJECT_ID      = 2002-056E
CENTER_NAME    = EARTH
REF_FRAME      = TEME
TIME_SYSTEM    = UTC
MEAN_ELEMENT_THEORY = SGP/SGP4

EPOCH          = 2026-01-20T21:40:12.516096
MEAN_MOTION    = 14.33717950
ECCENTRICITY   = .00693285
INCLINATION    = 98.3120
RA_OF_ASC_NODE = 343.1134
ARG_OF_PERICENTER = 304.6875
MEAN_ANOMALY   = 117.7306

EPHEMERIS_TYPE = 0
CLASSIFICATION_TYPE = U
NORAD_CAT_ID   = 27601
ELEMENT_SET_NO = 999
REV_AT_EPOCH   = 20726
BSTAR          = .24126845E-3
MEAN_MOTION_DOT = .646E-5
MEAN_MOTION_DDOT = 0

CCSDS_OMM_VERS = 2.0
CREATION_DATE  = 
ORIGINATOR     = 

OBJECT_NAME    = CZ-4B R/B
OBJECT_ID      = 2003-049C
CENTER_NAME    = EARTH
REF_FRAME      = TEME
TIME_SYSTEM    = UTC
MEAN_ELEMENT_THEORY = SGP/SGP4

EPOCH          = 2026-01-20T22:23:36.128256
MEAN_MOTION    = 14.54957253
ECCENTRICITY   = .00486142
INCLINATION    = 98.6824
RA_OF_ASC_NODE = 13.9858
ARG_OF_PERICENTER = 18.7743
MEAN_ANOMALY   = 341.5231

EPHEMERIS_TYPE = 0
CLASSIFICATION_TYPE = U
NORAD_CAT_ID   = 28059
ELEMENT_SET_NO = 999
REV_AT_EPOCH   = 17965
BSTAR          = .21296806E-3
MEAN_MOTION_DOT = .879E-5
MEAN_MOTION_DDOT = 0

CCSDS_OMM_VERS = 2.0
CREATION_DATE  = 
ORIGINATOR     = 

OBJECT_NAME    = CZ-2C R/B
OBJECT_ID      = 2004-012C
CENTER_NAME    = EARTH
REF_FRAME      = TEME
TIME_SYSTEM    = UTC
MEAN_ELEMENT_THEORY = SGP/SGP4

EPOCH          = 2026-01-20T16:21:31.005504
MEAN_MOTION    = 15.58979089
ECCENTRICITY   = .00171837
INCLINATION    = 97.7344
RA_OF_ASC_NODE = 81.6065
ARG_OF_PERICENTER = 125.9329
MEAN_ANOMALY   = 234.3523

EPHEMERIS_TYPE = 0
CLASSIFICATION_TYPE = U
NORAD_CAT_ID   = 28222
ELEMENT_SET_NO = 999
REV_AT_EPOCH   = 19678
BSTAR          = .11400822E-2
MEAN_MOTION_DOT = .89923E-3
MEAN_MOTION_DDOT = 0

CCSDS_OMM_VERS = 2.0
CREATION_DATE  = 
ORIGINATOR     = 

OBJECT_NAME    = SL-16 R/B
OBJECT_ID      = 2004-021B
CENTER_NAME    = EARTH
REF_FRAME      = TEME
TIME_SYSTEM    = UTC
MEAN_ELEMENT_THEORY = SGP/SGP4

EPOCH          = 2026-01-20T22:30:47.808576
MEAN_MOTION    = 14.14592475
ECCENTRICITY   = .00027383
INCLINATION    = 71.0028
RA_OF_ASC_NODE = 332.7037
ARG_OF_PERICENTER = 130.9376
MEAN_ANOMALY   = 229.1984

EPHEMERIS_TYPE = 0
CLASSIFICATION_TYPE = U
NORAD_CAT_ID   = 28353
ELEMENT_SET_NO = 999
REV_AT_EPOCH   = 11608
BSTAR          = -.33287205E-4
MEAN_MOTION_DOT = -.112E-5
MEAN_MOTION_DDOT = 0

CCSDS_OMM_VERS = 2.0
CREATION_DATE  = 
ORIGINATOR     = 

OBJECT_NAME    = CZ-4B R/B
OBJECT_ID      = 2004-035C
CENTER_NAME    = EARTH
REF_FRAME      = TEME
TIME_SYSTEM    = UTC
MEAN_ELEMENT_THEORY = SGP/SGP4

EPOCH          = 2026-01-20T23:48:00.376128
MEAN_MOTION    = 15.28117949
ECCENTRICITY   = .00339561
INCLINATION    = 97.3562
RA_OF_ASC_NODE = 55.8223
ARG_OF_PERICENTER = 135.8262
MEAN_ANOMALY   = 224.5698

EPHEMERIS_TYPE = 0
CLASSIFICATION_TYPE = U
NORAD_CAT_ID   = 28415
ELEMENT_SET_NO = 999
REV_AT_EPOCH   = 17262
BSTAR          = .64161044E-3
MEAN_MOTION_DOT = .1784E-3
MEAN_MOTION_DDOT = 0

CCSDS_OMM_VERS = 2.0
CREATION_DATE  = 
ORIGINATOR     = 

OBJECT_NAME    = CZ-2C R/B
OBJECT_ID      = 2004-046B
CENTER_NAME    = EARTH
REF_FRAME      = TEME
TIME_SYSTEM    = UTC
MEAN_ELEMENT_THEORY = SGP/SGP4

EPOCH          = 2026-01-20T17:37:49.895328
MEAN_MOTION    = 14.26969393
ECCENTRICITY   = .0138438
INCLINATION    = 98.2002
RA_OF_ASC_NODE = 298.6941
ARG_OF_PERICENTER = 296.9822
MEAN_ANOMALY   = 61.7279

EPHEMERIS_TYPE = 0
CLASSIFICATION_TYPE = U
NORAD_CAT_ID   = 28480
ELEMENT_SET_NO = 999
REV_AT_EPOCH   = 10166
BSTAR          = .14932171E-3
MEAN_MOTION_DOT = .359E-5
MEAN_MOTION_DDOT = 0

CCSDS_OMM_VERS = 2.0
CREATION_DATE  = 
ORIGINATOR     = 

OBJECT_NAME    = ARIANE 5 R/B
OBJECT_ID      = 2004-049H
CENTER_NAME    = EARTH
REF_FRAME      = TEME
TIME_SYSTEM    = UTC
MEAN_ELEMENT_THEORY = SGP/SGP4

EPOCH          = 2026-01-20T22:24:53.461440
MEAN_MOTION    = 14.85140492
ECCENTRICITY   = .00850337
INCLINATION    = 98.2552
RA_OF_ASC_NODE = 187.6298
ARG_OF_PERICENTER = 145.2035
MEAN_ANOMALY   = 215.4781

EPHEMERIS_TYPE = 0
CLASSIFICATION_TYPE = U
NORAD_CAT_ID   = 28499
ELEMENT_SET_NO = 999
REV_AT_EPOCH   = 13870
BSTAR          = .22686491E-3
MEAN_MOTION_DOT = .2008E-4
MEAN_MOTION_DDOT = 0

CCSDS_OMM_VERS = 2.0
CREATION_DATE  = 
ORIGINATOR     = 

OBJECT_NAME    = CZ-2D R/B
OBJECT_ID      = 2005-024B
CENTER_NAME    = EARTH
REF_FRAME      = TEME
TIME_SYSTEM    = UTC
MEAN_ELEMENT_THEORY = SGP/SGP4

EPOCH          = 2026-01-20T23:43:49.279584
MEAN_MOTION    = 15.55934407
ECCENTRICITY   = .00051457
INCLINATION    = 97.3617
RA_OF_ASC_NODE = 34.5385
ARG_OF_PERICENTER = 168.3480
MEAN_ANOMALY   = 191.7895

EPHEMERIS_TYPE = 0
CLASSIFICATION_TYPE = U
NORAD_CAT_ID   = 28738
ELEMENT_SET_NO = 999
REV_AT_EPOCH   = 13235
BSTAR          = .686534E-3
MEAN_MOTION_DOT = .47762E-3
MEAN_MOTION_DDOT = 0

